48976,ONEWEB-0258,2021,109.37,148.0,+,87.9,Active,1,LEO,Russia,UK,Commercial,Communications,Soyuz,1 48976U 21060K   25100.60565015 -.00000005  00000+0 -47244-4 0  9990,2 48976  87.9043 315.0323 0001647  85.7142 274.4177 13.16594289182673,13.16594289,0.0001647,LEO
48977,ONEWEB-0259,2021,109.37,148.0,+,87.9,Active,1,LEO,Russia,UK,Commercial,Communications,Soyuz,1 48977U 21060L   25100.59932925  .00000051  00000+0  99663-4 0  9998,2 48977  87.9042 315.0179 0001595  82.3539 277.7773 13.16597598182705,13.16597598,0.0001595,LEO
48978,ONEWEB-0260,2021,109.37,148.0,+,87.9,Active,1,LEO,Russia,UK,Commercial,Communications,Soyuz,1 48978U 21060M   25100.89460343  .00000052  00000+0  10129-3 0  9992,2 48978  87.9035 314.9885 0002253  81.3750 278.7636 13.16594481182725,13.16594481,0.0002253,LEO
48979,ONEWEB-0261,2021,109.37,148.0,+,87.9,Active,1,LEO,Russia,UK,Commercial,Communications,Soyuz,1 48979U 21060N   25101.32050503 -.00000095  00000+0 -28140-3 0  9996,2 48979  87.9035 314.9043 0001864  70.6777 289.4555 13.16594077184136,13.16594077,0.0001864,LEO
48980,ONEWEB-0262,2021,109.37,148.0,+,87.9,Active,1,LEO,Russia,UK,Commercial,Communications,Soyuz,1 48980U 21060P   25100.61673140  .00000025  00000+0  30966-4 0  9998,2 48980  87.9044 315.0017 0001445  84.1057 276.0239 13.16595899182702,13.16595899,0.0001445,LEO
48981,ONEWEB-0263,2021,109.37,148.0,+,87.9,Active,1,LEO,Russia,UK,Commercial,Communications,Soyuz,1 48981U 21060Q   25101.02836981  .00000074  00000+0  15902-3 0  9995,2 48981  87.9044 314.9449 0001584  71.1255 289.0048 13.16592020184022,13.1659202,0.0001584,LEO
48982,ONEWEB-0264,2021,109.37,148.0,+,87.9,Active,1,LEO,Russia,UK,Commercial,Communications,Soyuz,1 48982U 21060R   25100.60958580  .00000015  00000+0  53565-5 0  9993,2 48982  87.9038 315.0368 0001713  81.3492 278.7833 13.16590742182673,13.16590742,0.0001713,LEO
48984,ONEWEB-0266,2021,109.37,148.0,+,87.9,Active,1,LEO,Russia,UK,Commercial,Communications,Soyuz,1 48984U 21060T   25100.63098632  .00000038  00000+0  65116-4 0  9990,2 48984  87.9040 315.0030 0001583  89.3518 270.7795 13.16594885182666,13.16594885,0.0001583,LEO
